GONETS-M 16             
1 44907U 19096C   26198.12912595  .00000141  00000+0  94586-3 0  9999
2 44907  82.5180  65.4800 0011110 147.2509 212.9261 12.42893010297354
RS-44 & BREEZE-KM R/B   
1 44909U 19096E   26197.87016072  .00000018  00000+0  21785-4 0  9992
2 44909  82.5243 319.9815 0218517  75.0939 287.4247 12.79748900306140
JILIN-1 KUANFU 01       
1 45016U 20003A   26198.15609306  .00001556  00000+0  97242-4 0  9991
2 45016  97.5020 271.5274 0009448 189.8478 170.2568 15.10873237359855
XINGYUN-2 01            
1 45602U 20028A   26198.19016375  .00001572  00000+0  95375-4 0  9994
2 45602  97.4873 189.9997 0010834  98.0669 262.1791 15.11920234339374
XINGYUN-2 02            
1 45603U 20028B   26198.24038580  .00000403  00000+0  27437-4 0  9999
2 45603  97.5067 203.7059 0011333 159.0554 201.1142 15.11639681339377
HAIYANG-1D              
1 45721U 20036A   26198.18198755  .00000208  00000+0  89673-4 0  9996
2 45721  98.4562 139.2112 0003992  66.6789 293.4816 14.34182603319276
M2 PATHFINDER           
1 45727U 20037E   26197.97105610  .00000653  00000+0  50756-4 0  9991
2 45727  97.8141  29.5398 0012754  57.0170 303.2280 15.04794277329976
GAOFEN DUOMO (GFDM)     
1 45856U 20042A   26198.22118434  .00000140  00000+0  26894-4 0  9994
2 45856  97.7729 257.0126 0010587 346.6720  13.4210 14.76803646325447
ZIYUAN 3-03 (ZY 3-03)   
1 45939U 20051A   26198.17737690  .00002811  00000+0  12917-3 0  9998
2 45939  97.5364 265.1970 0002962 235.0884 125.0073 15.21210275331905
NEMO-HD                 
1 46277U 20061F   26198.18391851  .00006509  00000+0  13915-3 0  9998
2 46277  97.1899 259.8431 0001008 103.0375 257.0987 15.45164542326614
NAPA-1                  
1 46320U 20061BA  26198.18075910  .00057170  00000+0  43375-3 0  9995
2 46320  97.2433 273.4351 0002649 172.7311 187.3992 15.72182065326448
JILIN-1 GAOFEN 3E       
1 46457U 20065D   26198.13542690  .00049611  00000+0  45736-3 0  9993
2 46457  97.2203 251.5146 0009908  65.7871 294.4425 15.67421202324442
JILIN-1 GAOFEN 3F       
1 46458U 20065E   26198.15410848  .00038573  00000+0  40633-3 0  9991
2 46458  97.2160 248.7137 0011190  51.3601 308.8658 15.64102794324381
JILIN-1 GAOFEN 3G       
1 46459U 20065F   26198.15101677  .00080476  00000+0  48846-3 0  9992
2 46459  97.2220 256.0738 0005709 264.0937  95.9678 15.77269533324657
JILIN-1 GAOFEN 3H       
1 46460U 20065G   26198.13670858  .00063869  00000+0  47657-3 0  9990
2 46460  97.2167 252.1783 0006705 196.3119 163.7931 15.72528197324589
HAIYANG-2C              
1 46469U 20066A   26198.16809101 -.00000237  00000+0 -14179-3 0  9993
2 46469  65.9972 140.6391 0007519 237.0677 122.9669 13.83372106293640
HJ-2A                   
1 46478U 20067A   26198.18612639  .00000450  00000+0  71710-4 0  9994
2 46478  97.8824 275.8480 0004326 150.1539 209.9919 14.76550551312680
HJ-2B                   
1 46479U 20067B   26198.15493293 -.00000170  00000+0 -17338-4 0  9992
2 46479  97.8889 276.8633 0002002 103.8985 256.2448 14.76510558312687
GONETS-M 17             
1 46486U 20068A   26198.15459325 -.00000054  00000+0 -46099-3 0  9995
2 46486  82.5017 328.8588 0021750 332.2276  27.7641 12.42873721262885
GONETS-M 18             
1 46487U 20068B   26198.19873594 -.00000060  00000+0 -50136-3 0  9992
2 46487  82.4972 327.9379 0018983 328.6360  31.3586 12.42874606262871
GONETS-M 19             
1 46488U 20068C   26198.17373387  .00000028  00000+0  13452-3 0  9998
2 46488  82.4996 328.4093 0012957 345.6425  14.4285 12.42892827262977
DEKART                  
1 46493U 20068H   26198.14119581  .00006336  00000+0  17190-3 0  9996
2 46493  97.8740 209.5712 0009466 166.3898 193.7602 15.37975905320379
NORBI                   
1 46494U 20068J   26198.19412506  .00014880  00000+0  26989-3 0  9994
2 46494  97.8612 216.8321 0008457 137.6555 222.5349 15.49679708320852
SALSAT                  
1 46495U 20068K   26197.90294493  .00003936  00000+0  13754-3 0  9992
2 46495  97.8857 202.7868 0009381 186.6655 173.4461 15.30185999319903
ICEYE-X6                
1 46497U 20068M   26198.25109692  .00001342  00000+0  10023-3 0  9994
2 46497  98.0992 193.3646 0007058   4.7004 355.4285 15.04673402317753
NETSAT-4                
1 46504U 20068U   26197.60611441  .00010486  00000+0  22602-3 0  9996
2 46504  97.8603 208.2321 0004915 188.4532 171.6633 15.44786977320316
NETSAT-3                
1 46505U 20068V   26197.56972757  .00011163  00000+0  24996-3 0  9993
2 46505  97.8652 206.3734 0004019 204.9315 155.1738 15.43637888320213
NETSAT-1                
1 46506U 20068W   26197.92695618  .00006451  00000+0  19100-3 0  9997
2 46506  97.8754 200.7328 0002557 252.2749 107.8214 15.35269087319861
