OBJECT_NAME,OBJECT_ID,EPOCH,MEAN_MOTION,ECCENTRICITY,INCLINATION,RA_OF_ASC_NODE,ARG_OF_PERICENTER,MEAN_ANOMALY,EPHEMERIS_TYPE,CLASSIFICATION_TYPE,NORAD_CAT_ID,ELEMENT_SET_NO,REV_AT_EPOCH,BSTAR,MEAN_MOTION_DOT,MEAN_MOTION_DDOT
GONETS-M 16,2019-096C,2026-07-17T03:05:56.482080,12.42893010,.001111,82.5180,65.4800,147.2509,212.9261,0,U,44907,999,29735,.94586E-3,.141E-5,0
RS-44 & BREEZE-KM R/B,2019-096E,2026-07-16T20:53:01.886208,12.79748900,.0218517,82.5243,319.9815,75.0939,287.4247,0,U,44909,999,30614,.21785E-4,.18E-6,0
JILIN-1 KUANFU 01,2020-003A,2026-07-17T03:44:46.440384,15.10873237,.0009448,97.5020,271.5274,189.8478,170.2568,0,U,45016,999,35985,.97242E-4,.1556E-4,0
XINGYUN-2 01,2020-028A,2026-07-17T04:33:50.148000,15.11920234,.0010834,97.4873,189.9997,98.0669,262.1791,0,U,45602,999,33937,.95375E-4,.1572E-4,0
XINGYUN-2 02,2020-028B,2026-07-17T05:46:09.333120,15.11639681,.0011333,97.5067,203.7059,159.0554,201.1142,0,U,45603,999,33937,.27437E-4,.403E-5,0
HAIYANG-1D,2020-036A,2026-07-17T04:22:03.724320,14.34182603,.0003992,98.4562,139.2112,66.6789,293.4816,0,U,45721,999,31927,.89673E-4,.208E-5,0
M2 PATHFINDER,2020-037E,2026-07-16T23:18:19.247040,15.04794277,.0012754,97.8141,29.5398,57.0170,303.2280,0,U,45727,999,32997,.50756E-4,.653E-5,0
GAOFEN DUOMO (GFDM),2020-042A,2026-07-17T05:18:30.326976,14.76803646,.0010587,97.7729,257.0126,346.6720,13.4210,0,U,45856,999,32544,.26894E-4,.14E-5,0
ZIYUAN 3-03 (ZY 3-03),2020-051A,2026-07-17T04:15:25.364160,15.21210275,.0002962,97.5364,265.1970,235.0884,125.0073,0,U,45939,999,33190,.12917E-3,.2811E-4,0
NEMO-HD,2020-061F,2026-07-17T04:24:50.559264,15.45164542,.0001008,97.1899,259.8431,103.0375,257.0987,0,U,46277,999,32661,.13915E-3,.6509E-4,0
NAPA-1,2020-061BA,2026-07-17T04:20:17.586240,15.72182065,.0002649,97.2433,273.4351,172.7311,187.3992,0,U,46320,999,32644,.43375E-3,.5717E-3,0
JILIN-1 GAOFEN 3E,2020-065D,2026-07-17T03:15:00.884160,15.67421202,.0009908,97.2203,251.5146,65.7871,294.4425,0,U,46457,999,32444,.45736E-3,.49611E-3,0
JILIN-1 GAOFEN 3F,2020-065E,2026-07-17T03:41:54.972672,15.64102794,.001119,97.2160,248.7137,51.3601,308.8658,0,U,46458,999,32438,.40633E-3,.38573E-3,0
JILIN-1 GAOFEN 3G,2020-065F,2026-07-17T03:37:27.848928,15.77269533,.0005709,97.2220,256.0738,264.0937,95.9678,0,U,46459,999,32465,.48846E-3,.80476E-3,0
JILIN-1 GAOFEN 3H,2020-065G,2026-07-17T03:16:51.621312,15.72528197,.0006705,97.2167,252.1783,196.3119,163.7931,0,U,46460,999,32458,.47657E-3,.63869E-3,0
HAIYANG-2C,2020-066A,2026-07-17T04:02:03.063264,13.83372106,.0007519,65.9972,140.6391,237.0677,122.9669,0,U,46469,999,29364,-.14179E-3,-.237E-5,0
HJ-2A,2020-067A,2026-07-17T04:28:01.320096,14.76550551,.0004326,97.8824,275.8480,150.1539,209.9919,0,U,46478,999,31268,.7171E-4,.45E-5,0
HJ-2B,2020-067B,2026-07-17T03:43:06.205152,14.76510558,.0002002,97.8889,276.8633,103.8985,256.2448,0,U,46479,999,31268,-.17338E-4,-.17E-5,0
GONETS-M 17,2020-068A,2026-07-17T03:42:36.856800,12.42873721,.002175,82.5017,328.8588,332.2276,27.7641,0,U,46486,999,26288,-.46099E-3,-.54E-6,0
GONETS-M 18,2020-068B,2026-07-17T04:46:10.785216,12.42874606,.0018983,82.4972,327.9379,328.6360,31.3586,0,U,46487,999,26287,-.50136E-3,-.6E-6,0
GONETS-M 19,2020-068C,2026-07-17T04:10:10.606368,12.42892827,.0012957,82.4996,328.4093,345.6425,14.4285,0,U,46488,999,26297,.13452E-3,.28E-6,0
DEKART,2020-068H,2026-07-17T03:23:19.317984,15.37975905,.0009466,97.8740,209.5712,166.3898,193.7602,0,U,46493,999,32037,.1719E-3,.6336E-4,0
NORBI,2020-068J,2026-07-17T04:39:32.405184,15.49679708,.0008457,97.8612,216.8321,137.6555,222.5349,0,U,46494,999,32085,.26989E-3,.1488E-3,0
SALSAT,2020-068K,2026-07-16T21:40:14.441952,15.30185999,.0009381,97.8857,202.7868,186.6655,173.4461,0,U,46495,999,31990,.13754E-3,.3936E-4,0
ICEYE-X6,2020-068M,2026-07-17T06:01:34.773888,15.04673402,.0007058,98.0992,193.3646,4.7004,355.4285,0,U,46497,999,31775,.10023E-3,.1342E-4,0
NETSAT-4,2020-068U,2026-07-16T14:32:48.285024,15.44786977,.0004915,97.8603,208.2321,188.4532,171.6633,0,U,46504,999,32031,.22602E-3,.10486E-3,0
NETSAT-3,2020-068V,2026-07-16T13:40:24.462048,15.43637888,.0004019,97.8652,206.3734,204.9315,155.1738,0,U,46505,999,32021,.24996E-3,.11163E-3,0
NETSAT-1,2020-068W,2026-07-16T22:14:49.013952,15.35269087,.0002557,97.8754,200.7328,252.2749,107.8214,0,U,46506,999,31986,.191E-3,.6451E-4,0
